ONEWEB-0627             
1 55168U 23004AE  26066.38351364  .00000093  00000+0  20650-3 0  9994
2 55168  87.9143  26.0912 0001708  64.3227 295.8081 13.17650634154176
ONEWEB-0628             
1 55169U 23004AF  26067.08583478 -.00000249  00000+0 -72701-3 0  9995
2 55169  87.9000  10.7184 0001483  56.1934 303.9336 13.12441105154770
ONEWEB-0629             
1 55170U 23004AG  26067.11838609 -.00000055  00000+0 -17388-3 0  9995
2 55170  87.9144  25.9421 0001478  80.0579 280.0719 13.17647112154274
ONEWEB-0631             
1 55171U 23004AH  26066.80601714  .00000050  00000+0  93962-4 0  9992
2 55171  87.9251 355.5685 0002266  75.0383 285.1000 13.18683420156310
ONEWEB-0709             
1 55172U 23004AJ  26066.88223629 -.00000438  00000+0 -12709-2 0  9996
2 55172  87.8856  41.2254 0002672  90.7310 269.4125 13.11416295152593
ONEWEB-0710             
1 55173U 23004AK  26066.82898870  .00000029  00000+0  41187-4 0  9995
2 55173  87.9149  25.9949 0001873  75.0785 285.0554 13.17648066154236
ONEWEB-0711             
1 55174U 23004AL  26067.15860430  .00000186  00000+0  48802-3 0  9998
2 55174  87.8867  41.1516 0001825  59.1355 300.9952 13.11414333152594
ONEWEB-0713             
1 55175U 23004AM  26066.87205725 -.00000538  00000+0 -15541-2 0  9993
2 55175  87.8866  41.2083 0001830  70.4697 289.6629 13.11415748152545
ONEWEB-0715             
1 55176U 23004AN  26066.63808217 -.00000368  00000+0 -10754-2 0  9995
2 55176  87.8860  41.2552 0002538  81.1420 278.9995 13.11415544152552
ONEWEB-0716             
1 55177U 23004AP  26067.12600461  .00000012  00000+0 -32210-5 0  9991
2 55177  87.9149  25.9359 0001745  87.7300 272.4031 13.17648872154275
ONEWEB-0717             
1 55178U 23004AQ  26066.88131089  .00000009  00000+0 -91108-5 0  9996
2 55178  87.9157  25.9641 0002012  60.9007 299.2326 13.17648434154294
ONEWEB-0719             
1 55179U 23004AR  26066.81548806  .00000014  00000+0  36446-5 0  9998
2 55179  87.9157  25.9583 0001652  83.2012 276.9308 13.17651357154237
ONEWEB-0530             
1 55796U 23029A   26067.10664362  .00000089  00000+0  18787-3 0  9997
2 55796  87.9165 294.6612 0001394  66.3205 293.8074 13.20772504147803
ONEWEB-0534             
1 55797U 23029B   26067.09401967  .00000113  00000+0  24599-3 0  9992
2 55797  87.9162 294.6626 0001567  93.2819 266.8494 13.20772515147806
ONEWEB-0556             
1 55798U 23029C   26067.10033715  .00000161  00000+0  36512-3 0  9998
2 55798  87.9161 294.6638 0000844 110.5766 249.5458 13.20771807147801
ONEWEB-0562             
1 55799U 23029D   26067.08770460  .00000081  00000+0  16825-3 0  9997
2 55799  87.9163 294.6462 0000932  57.6927 302.4296 13.20772877147804
ONEWEB-0563             
1 55800U 23029E   26067.15714667  .00000030  00000+0  42464-4 0  9998
2 55800  87.9164 294.6622 0001566  96.5815 263.5497 13.20772706147809
