[{"OBJECT_NAME":"ONEWEB-0627","OBJECT_ID":"2023-004AE","EPOCH":"2026-03-07T09:12:15.578496","MEAN_MOTION":13.17650634,"ECCENTRICITY":0.00017089,"INCLINATION":87.9143,"RA_OF_ASC_NODE":26.0912,"ARG_OF_PERICENTER":64.3227,"MEAN_ANOMALY":295.8081,"EPHEMERIS_TYPE":0,"CLASSIFICATION_TYPE":"U","NORAD_CAT_ID":55168,"ELEMENT_SET_NO":999,"REV_AT_EPOCH":15417,"BSTAR":0.00020650444,"MEAN_MOTION_DOT":9.3e-7,"MEAN_MOTION_DDOT":0},{"OBJECT_NAME":"ONEWEB-0628","OBJECT_ID":"2023-004AF","EPOCH":"2026-03-08T02:03:36.124992","MEAN_MOTION":13.12441105,"ECCENTRICITY":0.0001483,"INCLINATION":87.9,"RA_OF_ASC_NODE":10.7184,"ARG_OF_PERICENTER":56.1934,"MEAN_ANOMALY":303.9336,"EPHEMERIS_TYPE":0,"CLASSIFICATION_TYPE":"U","NORAD_CAT_ID":55169,"ELEMENT_SET_NO":999,"REV_AT_EPOCH":15477,"BSTAR":-0.00072701,"MEAN_MOTION_DOT":-2.49e-6,"MEAN_MOTION_DDOT":0},{"OBJECT_NAME":"ONEWEB-0629","OBJECT_ID":"2023-004AG","EPOCH":"2026-03-08T02:50:28.558176","MEAN_MOTION":13.17647112,"ECCENTRICITY":0.0001478,"INCLINATION":87.9144,"RA_OF_ASC_NODE":25.9421,"ARG_OF_PERICENTER":80.0579,"MEAN_ANOMALY":280.0719,"EPHEMERIS_TYPE":0,"CLASSIFICATION_TYPE":"U","NORAD_CAT_ID":55170,"ELEMENT_SET_NO":999,"REV_AT_EPOCH":15427,"BSTAR":-0.00017388,"MEAN_MOTION_DOT":-5.5e-7,"MEAN_MOTION_DDOT":0},{"OBJECT_NAME":"ONEWEB-0631","OBJECT_ID":"2023-004AH","EPOCH":"2026-03-07T19:20:39.880896","MEAN_MOTION":13.1868342,"ECCENTRICITY":0.00022667,"INCLINATION":87.9251,"RA_OF_ASC_NODE":355.5685,"ARG_OF_PERICENTER":75.0383,"MEAN_ANOMALY":285.1,"EPHEMERIS_TYPE":0,"CLASSIFICATION_TYPE":"U","NORAD_CAT_ID":55171,"ELEMENT_SET_NO":999,"REV_AT_EPOCH":15631,"BSTAR":9.39621e-5,"MEAN_MOTION_DOT":5.0e-7,"MEAN_MOTION_DDOT":0},{"OBJECT_NAME":"ONEWEB-0709","OBJECT_ID":"2023-004AJ","EPOCH":"2026-03-07T21:10:25.215456","MEAN_MOTION":13.11416295,"ECCENTRICITY":0.00026723,"INCLINATION":87.8856,"RA_OF_ASC_NODE":41.2254,"ARG_OF_PERICENTER":90.731,"MEAN_ANOMALY":269.4125,"EPHEMERIS_TYPE":0,"CLASSIFICATION_TYPE":"U","NORAD_CAT_ID":55172,"ELEMENT_SET_NO":999,"REV_AT_EPOCH":15259,"BSTAR":-0.0012709476,"MEAN_MOTION_DOT":-4.38e-6,"MEAN_MOTION_DDOT":0},{"OBJECT_NAME":"ONEWEB-0710","OBJECT_ID":"2023-004AK","EPOCH":"2026-03-07T19:53:44.623680","MEAN_MOTION":13.17648066,"ECCENTRICITY":0.00018731,"INCLINATION":87.9149,"RA_OF_ASC_NODE":25.9949,"ARG_OF_PERICENTER":75.0785,"MEAN_ANOMALY":285.0554,"EPHEMERIS_TYPE":0,"CLASSIFICATION_TYPE":"U","NORAD_CAT_ID":55173,"ELEMENT_SET_NO":999,"REV_AT_EPOCH":15423,"BSTAR":4.1186615e-5,"MEAN_MOTION_DOT":2.9e-7,"MEAN_MOTION_DDOT":0},{"OBJECT_NAME":"ONEWEB-0711","OBJECT_ID":"2023-004AL","EPOCH":"2026-03-08T03:48:23.411520","MEAN_MOTION":13.11414333,"ECCENTRICITY":0.0001825,"INCLINATION":87.8867,"RA_OF_ASC_NODE":41.1516,"ARG_OF_PERICENTER":59.1355,"MEAN_ANOMALY":300.9952,"EPHEMERIS_TYPE":0,"CLASSIFICATION_TYPE":"U","NORAD_CAT_ID":55174,"ELEMENT_SET_NO":999,"REV_AT_EPOCH":15259,"BSTAR":0.00048802,"MEAN_MOTION_DOT":1.86e-6,"MEAN_MOTION_DDOT":0},{"OBJECT_NAME":"ONEWEB-0713","OBJECT_ID":"2023-004AM","EPOCH":"2026-03-07T20:55:45.746400","MEAN_MOTION":13.11415748,"ECCENTRICITY":0.00018302,"INCLINATION":87.8866,"RA_OF_ASC_NODE":41.2083,"ARG_OF_PERICENTER":70.4697,"MEAN_ANOMALY":289.6629,"EPHEMERIS_TYPE":0,"CLASSIFICATION_TYPE":"U","NORAD_CAT_ID":55175,"ELEMENT_SET_NO":999,"REV_AT_EPOCH":15254,"BSTAR":-0.0015540573,"MEAN_MOTION_DOT":-5.38e-6,"MEAN_MOTION_DDOT":0},{"OBJECT_NAME":"ONEWEB-0715","OBJECT_ID":"2023-004AN","EPOCH":"2026-03-07T15:18:50.299488","MEAN_MOTION":13.11415544,"ECCENTRICITY":0.00025384,"INCLINATION":87.886,"RA_OF_ASC_NODE":41.2552,"ARG_OF_PERICENTER":81.142,"MEAN_ANOMALY":278.9995,"EPHEMERIS_TYPE":0,"CLASSIFICATION_TYPE":"U","NORAD_CAT_ID":55176,"ELEMENT_SET_NO":999,"REV_AT_EPOCH":15255,"BSTAR":-0.0010754452,"MEAN_MOTION_DOT":-3.68e-6,"MEAN_MOTION_DDOT":0},{"OBJECT_NAME":"ONEWEB-0716","OBJECT_ID":"2023-004AP","EPOCH":"2026-03-08T03:01:26.798304","MEAN_MOTION":13.17648872,"ECCENTRICITY":0.0001745,"INCLINATION":87.9149,"RA_OF_ASC_NODE":25.9359,"ARG_OF_PERICENTER":87.73,"MEAN_ANOMALY":272.4031,"EPHEMERIS_TYPE":0,"CLASSIFICATION_TYPE":"U","NORAD_CAT_ID":55177,"ELEMENT_SET_NO":999,"REV_AT_EPOCH":15427,"BSTAR":-3.221e-6,"MEAN_MOTION_DOT":1.2e-7,"MEAN_MOTION_DDOT":0},{"OBJECT_NAME":"ONEWEB-0717","OBJECT_ID":"2023-004AQ","EPOCH":"2026-03-07T21:09:05.260896","MEAN_MOTION":13.17648434,"ECCENTRICITY":0.0002012,"INCLINATION":87.9157,"RA_OF_ASC_NODE":25.9641,"ARG_OF_PERICENTER":60.9007,"MEAN_ANOMALY":299.2326,"EPHEMERIS_TYPE":0,"CLASSIFICATION_TYPE":"U","NORAD_CAT_ID":55178,"ELEMENT_SET_NO":999,"REV_AT_EPOCH":15429,"BSTAR":-9.110801e-6,"MEAN_MOTION_DOT":9.0e-8,"MEAN_MOTION_DDOT":0},{"OBJECT_NAME":"ONEWEB-0719","OBJECT_ID":"2023-004AR","EPOCH":"2026-03-07T19:34:18.168384","MEAN_MOTION":13.17651357,"ECCENTRICITY":0.00016523,"INCLINATION":87.9157,"RA_OF_ASC_NODE":25.9583,"ARG_OF_PERICENTER":83.2012,"MEAN_ANOMALY":276.9308,"EPHEMERIS_TYPE":0,"CLASSIFICATION_TYPE":"U","NORAD_CAT_ID":55179,"ELEMENT_SET_NO":999,"REV_AT_EPOCH":15423,"BSTAR":3.644556e-6,"MEAN_MOTION_DOT":1.4e-7,"MEAN_MOTION_DDOT":0},{"OBJECT_NAME":"ONEWEB-0530","OBJECT_ID":"2023-029A","EPOCH":"2026-03-08T02:33:34.008768","MEAN_MOTION":13.20772504,"ECCENTRICITY":0.0001394,"INCLINATION":87.9165,"RA_OF_ASC_NODE":294.6612,"ARG_OF_PERICENTER":66.3205,"MEAN_ANOMALY":293.8074,"EPHEMERIS_TYPE":0,"CLASSIFICATION_TYPE":"U","NORAD_CAT_ID":55796,"ELEMENT_SET_NO":999,"REV_AT_EPOCH":14780,"BSTAR":0.00018787,"MEAN_MOTION_DOT":8.9e-7,"MEAN_MOTION_DDOT":0},{"OBJECT_NAME":"ONEWEB-0534","OBJECT_ID":"2023-029B","EPOCH":"2026-03-08T02:15:23.299488","MEAN_MOTION":13.20772515,"ECCENTRICITY":0.0001567,"INCLINATION":87.9162,"RA_OF_ASC_NODE":294.6626,"ARG_OF_PERICENTER":93.2819,"MEAN_ANOMALY":266.8494,"EPHEMERIS_TYPE":0,"CLASSIFICATION_TYPE":"U","NORAD_CAT_ID":55797,"ELEMENT_SET_NO":999,"REV_AT_EPOCH":14780,"BSTAR":0.00024599,"MEAN_MOTION_DOT":1.13e-6,"MEAN_MOTION_DDOT":0},{"OBJECT_NAME":"ONEWEB-0556","OBJECT_ID":"2023-029C","EPOCH":"2026-03-08T02:24:29.129760","MEAN_MOTION":13.20771807,"ECCENTRICITY":8.44e-5,"INCLINATION":87.9161,"RA_OF_ASC_NODE":294.6638,"ARG_OF_PERICENTER":110.5766,"MEAN_ANOMALY":249.5458,"EPHEMERIS_TYPE":0,"CLASSIFICATION_TYPE":"U","NORAD_CAT_ID":55798,"ELEMENT_SET_NO":999,"REV_AT_EPOCH":14780,"BSTAR":0.00036512,"MEAN_MOTION_DOT":1.61e-6,"MEAN_MOTION_DDOT":0},{"OBJECT_NAME":"ONEWEB-0562","OBJECT_ID":"2023-029D","EPOCH":"2026-03-08T02:06:17.677440","MEAN_MOTION":13.20772877,"ECCENTRICITY":9.32e-5,"INCLINATION":87.9163,"RA_OF_ASC_NODE":294.6462,"ARG_OF_PERICENTER":57.6927,"MEAN_ANOMALY":302.4296,"EPHEMERIS_TYPE":0,"CLASSIFICATION_TYPE":"U","NORAD_CAT_ID":55799,"ELEMENT_SET_NO":999,"REV_AT_EPOCH":14780,"BSTAR":0.00016825,"MEAN_MOTION_DOT":8.1e-7,"MEAN_MOTION_DDOT":0},{"OBJECT_NAME":"ONEWEB-0563","OBJECT_ID":"2023-029E","EPOCH":"2026-03-08T03:46:17.472288","MEAN_MOTION":13.20772706,"ECCENTRICITY":0.0001566,"INCLINATION":87.9164,"RA_OF_ASC_NODE":294.6622,"ARG_OF_PERICENTER":96.5815,"MEAN_ANOMALY":263.5497,"EPHEMERIS_TYPE":0,"CLASSIFICATION_TYPE":"U","NORAD_CAT_ID":55800,"ELEMENT_SET_NO":999,"REV_AT_EPOCH":14780,"BSTAR":4.2464e-5,"MEAN_MOTION_DOT":3.0e-7,"MEAN_MOTION_DDOT":0}]
